ALOS-2                  
1 39766U 14029A   26091.51102852  .00002400  00000+0  32822-3 0  9994
2 39766  97.9198 189.7770 0002009 100.9975 259.1463 14.79465242640247
YAOGAN-29               
1 41038U 15069A   26091.53240177  .00000362  00000+0  51220-4 0  9998
2 41038  98.0110 120.0201 0000187 354.9429   5.1782 14.83020563559267
ASTRO-H (HITOMI)        
1 41337U 16012A   26091.50450730  .00003629  00000+0  21118-3 0  9995
2 41337  30.9992 209.3007 0009659 201.3176 158.7060 15.10151380555683
HXMT (HUIYAN)           
1 42758U 17034A   26091.55018100  .00005410  00000+0  27148-3 0  9993
2 42758  43.0134 249.5488 0031340  16.9676 343.2214 15.17751934486010
H-2A R/B                
1 43682U 18084L   26091.18779369  .00018870  00000+0  43581-3 0  9999
2 43682  98.8700 313.3988 0023507 306.3863  53.5211 15.42318515409249
SAOCOM 1B               
1 46265U 20059A   26091.47529140  .00000885  00000+0  11776-3 0  9994
2 46265  97.8887 278.4232 0001425  87.0425 273.0952 14.82146249302125
CSS (TIANHE)            
1 48274U 21035A   26091.36022109  .00024066  00000+0  27286-3 0  9992
2 48274  41.4670  70.0996 0003722  85.9086 274.2179 15.61804306281153
COSMOS 2550             
1 48865U 21056A   26091.47039022  .00005639  00000+0  17705-3 0  9995
2 48865  67.1445 331.9738 0008328 269.3207  90.6993 15.33839535266953
CZ-2C R/B               
1 52794U 22058K   26091.00285120  .00044686  00000+0  61029-3 0  9998
2 52794  50.1880 203.3672 0041332 296.5787  63.0952 15.55949413213604
CZ-2C R/B               
1 54039U 22132E   26091.54909703  .00047440  00000+0  49866-3 0  9990
2 54039  97.2951  95.5967 0016717  15.5006 344.6761 15.64017818193944
GSLV R/B                
1 54149U 22138AN  26091.18318273  .00003021  00000+0  25929-3 0  9995
2 54149  87.3855 158.8315 0023940  72.6423 287.7425 14.96915376187297
